IRIDIUM 171             
1 43929U 19002H   24209.49952487  .00000142  00000+0  43666-4 0  9999
2 43929  86.3963 282.0194 0002100  91.2880 268.8557 14.34217986290109
IRIDIUM 170             
1 43930U 19002J   24209.22498281  .00001520  00000+0  23706-3 0  9992
2 43930  86.6085 281.9474 0002316  93.0715 267.0767 14.72254449297742
IRIDIUM 167             
1 43931U 19002K   24209.28387642  .00000154  00000+0  48062-4 0  9992
2 43931  86.3955 281.8959 0002288  91.3073 268.8385 14.34218394290070
IRIDIUM 181             
1 56726U 23068S   24209.24138485  .00000805  00000+0  23199-3 0  9996
2 56726  86.8667 337.5942 0002243  88.9036 271.2422 14.43579459 62916
IRIDIUM 177             
1 56727U 23068T   24209.24538166  .00002560  00000+0  33350-3 0  9997
2 56727  86.1973 296.3421 0002426  91.6642 268.4856 14.80226619 64303
IRIDIUM 174             
1 56728U 23068U   24209.37515204  .00002359  00000+0  30692-3 0  9992
2 56728  86.1982 296.3880 0002559  91.7304 268.4210 14.80227506 64328
IRIDIUM 178             
1 56729U 23068V   24209.36973597  .00002420  00000+0  31503-3 0  9996
2 56729  86.5800 315.7611 0002732  91.4013 268.7521 14.80229716 64320
IRIDIUM 179             
1 56730U 23068W   24208.68828171  .00000936  00000+0  11971-3 0  9996
2 56730  86.6815 320.6840 0002171  94.7910 265.3559 14.80224221 64226
